[
  {
    "name": "Crystal Palace Reptiles",
    "town": "London",
    "postcode": "SE19 3AF",
    "rating": 4.8,
    "website": "https://www.crystalpalacereptiles.com",
    "map": "https://www.google.com/maps/search/Crystal+Palace+Reptiles+SE19+3AF"
  },
  {
    "name": "Jungle Reptiles",
    "town": "Bracknell",
    "postcode": "RG42 6EJ",
    "rating": 5.0,
    "website": "https://www.junglereptiles.uk",
    "map": "https://www.google.com/maps/search/Jungle+Reptiles+RG42+6EJ"
  },
  {
    "name": "Slitherin Reptiles",
    "town": "Leicester",
    "postcode": "LE1 4SA",
    "rating": 4.7,
    "website": "https://www.slitherinreptiles.com",
    "map": "https://www.google.com/maps/search/Slitherin+Reptiles+LE1+4SA"
  },
  {
    "name": "Internet Reptile",
    "town": "Nottingham",
    "postcode": "NG7 7FN",
    "rating": 4.6,
    "website": "https://www.internetreptile.com",
    "map": "https://www.google.com/maps/search/Internet+Reptile+NG7+7FN"
  },
  {
    "name": "Blackpool Reptiles & Aquatics",
    "town": "Blackpool",
    "postcode": "FY1 6ES",
    "rating": 4.7,
    "website": "https://www.blackpoolreptiles.co.uk",
    "map": "https://www.google.com/maps/search/Blackpool+Reptiles+FY1+6ES"
  },
  {
    "name": "Reptile Cymru",
    "town": "Cardiff",
    "postcode": "CF11 6RL",
    "rating": 4.6,
    "website": "https://www.reptilecymru.co.uk",
    "map": "https://www.google.com/maps/search/Reptile+Cymru+CF11+6RL"
  },
  {
    "name": "Dearne Valley Pets",
    "town": "Wombwell, Barnsley",
    "postcode": "S73 8DJ",
    "rating": 4.9,
    "website": "https://www.dearnevalleypetcentre.com",
    "map": "https://www.google.com/maps/search/Dearne+Valley+Pets+S73+8DJ"
  },
  {
    "name": "Northampton Reptile Centre",
    "town": "Northampton",
    "postcode": "NN5 5DA",
    "rating": 4.7,
    "website": "https://www.reptilecentre.com",
    "map": "https://www.google.com/maps/search/Northampton+Reptile+Centre+NN5+5DA"
  },
  {
    "name": "Pro-Rep",
    "town": "Ongar, Essex",
    "postcode": "CM5 0EN",
    "rating": 4.4,
    "website": "https://www.pro-rep.co.uk",
    "map": "https://www.google.com/maps/search/Pro-Rep+CM5+0EN"
  },
  {
    "name": "Natures Grub",
    "town": "Fakenham, Norfolk",
    "postcode": "NR21 8HW",
    "rating": 4.5,
    "website": "https://www.naturesgrub.co.uk",
    "map": "https://www.google.com/maps/search/Natures+Grub+NR21+8HW"
  }
]
